     2.10           NAVIGATION                              RINEX VERSION / TYPE
fic2rin                                 07/22/2008 01:48:11 PGM / RUN BY / DATE
                                                            END OF HEADER
17 08  7 21  2  0  0.0  .386871397495D-04  .113686837722D-12  .000000000000D+00
     .970000000000D+02  .843750000000D+01  .461876381862D-08 -.249066191164D+01
     .476837158203D-06  .366869755089D-02  .103823840618D-04  .515378131866D+04
     .936000000000D+05  .149011611938D-07 -.219815176207D+01 -.160187482834D-06
     .959515416354D+00  .178375000000D+03 -.276052914685D+01 -.791925844033D-08
     .464662212189D-09  .100000000000D+01  .148900000000D+04  .000000000000D+00
     .340000000000D+01  .000000000000D+00 -.102445483208D-07  .970000000000D+02
     .864060000000D+05  .400000000000D+01
18 08  7 21  2  0  0.0 -.154089182615D-03  .432009983342D-11  .000000000000D+00
     .560000000000D+02 -.104687500000D+02  .469876715108D-08 -.106514921693D+01
    -.694766640663D-06  .963874044828D-02  .997073948383D-05  .515370023537D+04
     .936000000000D+05  .298023223877D-06 -.810298137998D-01  .856816768646D-07
     .947286012230D+00  .182875000000D+03 -.249287374137D+01 -.804497796277D-08
    -.644669710224D-09  .100000000000D+01  .148900000000D+04  .000000000000D+00
     .240000000000D+01  .000000000000D+00 -.107102096081D-07  .560000000000D+02
     .864060000000D+05  .400000000000D+01
19 08  7 21  2  0  0.0  .337893143296D-04  .454747350886D-12  .000000000000D+00
     .910000000000D+02  .274062500000D+02  .471591072233D-08 -.287746897960D+01
     .155903398991D-05  .484736915678D-02  .107344239950D-04  .515371115685D+04
     .936000000000D+05 -.633299350739D-07 -.214120964931D+01  .856816768646D-07
     .957245985686D+00  .168937500000D+03 -.564575544998D+00 -.789640034534D-08
     .606096674931D-09  .100000000000D+01  .148900000000D+04  .000000000000D+00
     .240000000000D+01  .000000000000D+00 -.144354999065D-07  .910000000000D+02
     .864060000000D+05  .400000000000D+01
20 08  7 21  2  0  0.0  .109467189759D-03 -.795807864051D-12  .000000000000D+00
     .730000000000D+02 -.205312500000D+02  .481984362298D-08 -.101555126014D+01
    -.117532908916D-05  .358462438453D-02  .983104109764D-05  .515380616188D+04
     .936000000000D+05 -.167638063431D-07 -.134637375959D+00  .577419996262D-07
     .946785268538D+00  .180625000000D+03  .138192686017D+01 -.818605526777D-08
    -.698600528088D-09  .100000000000D+01  .148900000000D+04  .000000000000D+00
     .240000000000D+01  .000000000000D+00 -.651925802231D-08  .730000000000D+02
     .864060000000D+05  .400000000000D+01
21 08  7 21  2  0  0.0  .573224388063D-04 -.136424205266D-11  .000000000000D+00
     .820000000000D+02  .400000000000D+01  .574238205040D-08  .115629118131D+00
     .184401869774D-06  .141806718893D-01  .386685132980D-05  .515369307327D+04
     .936000000000D+05  .912696123123D-07 -.113920459804D+01  .128522515297D-06
     .935497070797D+00  .287312500000D+03 -.269718376412D+01 -.889322758148D-08
    -.200722646618D-09  .100000000000D+01  .148900000000D+04  .000000000000D+00
     .240000000000D+01  .000000000000D+00 -.116415321827D-07  .820000000000D+02
     .864060000000D+05  .400000000000D+01
22 08  7 21  2  0  0.0  .211483333260D-03  .113686837722D-12  .000000000000D+00
     .140000000000D+02 -.831250000000D+01  .466269421993D-08 -.233071734028D+01
    -.474974513054D-06  .497561122756D-02  .102333724499D-04  .515366364098D+04
     .936000000000D+05  .745058059692D-07 -.746602494648D-01 -.372529029846D-07
     .944928979102D+00  .176406250000D+03 -.182965229757D+01 -.790497213096D-08
    -.605382359462D-09  .100000000000D+01  .148900000000D+04  .000000000000D+00
     .240000000000D+01  .000000000000D+00 -.181607902050D-07  .140000000000D+02
     .864060000000D+05  .400000000000D+01
23 08  7 21  2  0  0.0  .365308951586D-03  .181898940355D-11  .000000000000D+00
     .120000000000D+02  .109625000000D+03  .395302180208D-08  .271931607765D+01
     .568851828575D-05  .577600579709D-02  .958889722824D-05  .515372041893D+04
     .936000000000D+05 -.167638063431D-07  .934173957946D+00  .484287738800D-07
     .971321672886D+00  .200375000000D+03  .277338961579D+01 -.779818196844D-08
     .185007706314D-09  .100000000000D+01  .148900000000D+04  .000000000000D+00
     .240000000000D+01  .000000000000D+00 -.200234353542D-07  .120000000000D+02
     .864060000000D+05  .400000000000D+01
24 08  7 21  2  0  0.0  .111000612378D-03  .284217094304D-11  .000000000000D+00
     .970000000000D+02  .343750000000D+01  .533343644475D-08 -.123116375285D+01
     .216066837311D-06  .762402138207D-02  .439025461674D-05  .515366068077D+04
     .936000000000D+05 -.167638063431D-07 -.111231886868D+01 -.169500708580D-06
     .952163616637D+00  .289750000000D+03 -.728476613415D+00 -.859892960850D-08
    -.103932900651D-09  .100000000000D+01  .148900000000D+04  .000000000000D+00
     .340000000000D+01  .000000000000D+00 -.139698386192D-08  .970000000000D+02
     .864060000000D+05  .400000000000D+01
25 08  7 21  2  0  0.0 -.196515582502D-03 -.126192389871D-10  .000000000000D+00
     .500000000000D+02  .198750000000D+02  .471198198725D-08 -.731456944735D+00
     .101327896118D-05  .116329822922D-01  .222586095333D-05  .515369501495D+04
     .936000000000D+05 -.208616256714D-06  .188305234188D+01  .260770320892D-07
     .965312472088D+00  .342750000000D+03 -.124774345403D+01 -.863107380458D-08
     .317870383435D-09  .100000000000D+01  .148900000000D+04  .000000000000D+00
     .485000000000D+01  .000000000000D+00 -.745058059692D-08  .500000000000D+02
     .864060000000D+05  .400000000000D+01
26 08  7 21  2  0  0.0  .296063255519D-03  .670752342558D-11  .000000000000D+00
     .101000000000D+03  .965937500000D+02  .347407328053D-08  .212900453256D+01
     .473670661449D-05  .191461560316D-01  .881776213646D-05  .515362209511D+04
     .936000000000D+05 -.145286321640D-06  .977393114998D+00 -.396743416786D-06
     .993392716485D+00  .225625000000D+03  .948650932353D+00 -.753174229873D-08
     .273225666660D-09  .100000000000D+01  .148900000000D+04  .000000000000D+00
     .340000000000D+01  .000000000000D+00 -.605359673500D-08  .101000000000D+03
     .864060000000D+05  .400000000000D+01
27 08  7 21  2  0  0.0  .204254407436D-03  .272848410532D-11  .000000000000D+00
     .119000000000D+03  .149375000000D+02  .468483799945D-08 -.733037513612D+00
     .109151005745D-05  .211101287277D-01  .258535146713D-05  .515374606323D+04
     .936000000000D+05 -.270083546638D-06  .191803107449D+01  .240281224251D-06
     .969920478247D+00  .340718750000D+03 -.169788923672D+01 -.876679374358D-08
     .290369237901D-09  .100000000000D+01  .148900000000D+04  .000000000000D+00
     .485000000000D+01  .000000000000D+00 -.419095158577D-08  .119000000000D+03
     .864060000000D+05  .400000000000D+01
28 08  7 21  2  0  0.0 -.212173908949D-04 -.341060513165D-12  .000000000000D+00
     .720000000000D+02 -.113250000000D+03  .427696386700D-08 -.199293694205D+01
    -.589713454247D-05  .138534993166D-01  .831298530102D-05  .515372245789D+04
     .936000000000D+05  .217929482460D-06  .305285944819D+01 -.745058059692D-07
     .964578404665D+00  .214125000000D+03 -.209495427308D+01 -.779175312922D-08
    -.178578867098D-11  .100000000000D+01  .148900000000D+04  .000000000000D+00
     .240000000000D+01  .000000000000D+00 -.102445483208D-07  .720000000000D+02
     .864060000000D+05  .400000000000D+01
29 08  7 21  2  0  0.0 -.412659719586D-04  .682121026330D-12  .000000000000D+00
     .880000000000D+02  .223437500000D+02  .472626829662D-08  .223085692689D+00
     .120140612125D-05  .370392692275D-02  .102091580629D-04  .515363265991D+04
     .936000000000D+05 -.372529029846D-07 -.218998589672D+01 -.745058059692D-08
     .959635943249D+00  .184687500000D+03 -.139272695091D+01 -.806747890002D-08
     .505378193887D-09  .100000000000D+01  .148900000000D+04  .000000000000D+00
     .240000000000D+01  .000000000000D+00 -.884756445885D-08  .880000000000D+02
     .864060000000D+05  .400000000000D+01
30 08  7 21  2  0  0.0  .869622454047D-04  .193267624127D-11  .000000000000D+00
     .550000000000D+02 -.103500000000D+03  .479091384651D-08 -.152498904676D+01
    -.509060919285D-05  .108507594559D-01  .822916626930D-05  .515371165466D+04
     .936000000000D+05  .108033418655D-06  .298514728718D+01  .260770320892D-06
     .949593276886D+00  .213218750000D+03  .138219620387D+01 -.815962559544D-08
    -.123219418298D-09  .100000000000D+01  .148900000000D+04  .000000000000D+00
     .340000000000D+01  .000000000000D+00 -.838190317154D-08  .550000000000D+02
     .864060000000D+05  .400000000000D+01
32 08  7 21  2  0  0.0  .308482442051D-03  .272848410532D-11  .000000000000D+00
     .810000000000D+02 -.127187500000D+02  .414910139816D-08  .197224081469D+01
    -.761821866035D-06  .139163280837D-01  .104345381260D-04  .515381918716D+04
     .936000000000D+05  .281259417534D-06 -.317094062183D-01 -.316649675369D-07
     .968751268767D+00  .175718750000D+03 -.130628773565D+01 -.759710216408D-08
    -.700029159024D-09  .100000000000D+01  .148900000000D+04  .000000000000D+00
     .340000000000D+01  .000000000000D+00 -.279396772385D-08  .810000000000D+02
     .864060000000D+05  .400000000000D+01
26 08  7 21  1 59 44.0  .296060461551D-03  .670752342558D-11  .000000000000D+00
     .160000000000D+02  .965937500000D+02  .347407328053D-08  .212667085491D+01
     .473670661449D-05  .191461575450D-01  .881776213646D-05  .515362208557D+04
     .935840000000D+05 -.145286321640D-06  .977393280308D+00 -.396743416786D-06
     .993392717948D+00  .225625000000D+03  .948650857745D+00 -.753174229873D-08
     .273225666660D-09  .100000000000D+01  .148900000000D+04  .000000000000D+00
     .240000000000D+01  .000000000000D+00 -.605359673500D-08  .160000000000D+02
     .864360000000D+05  .400000000000D+01
